SPACEMOBILE-003         
1 61045U 24163A   26193.12443383  .00000008  00000+0  15017-4 0  9996
2 61045  52.9645 194.7701 0003953 176.8899 183.2120 15.20757146101564
SPACEMOBILE-005         
1 61046U 24163B   26193.37078742  .00003105  00000+0  15376-3 0  9995
2 61046  52.9783 193.5770 0008680 187.3412 172.7457 15.20767447101595
SPACEMOBILE-001         
1 61047U 24163C   26192.44911905  .00000309  00000+0  28551-4 0  9993
2 61047  52.9736 197.5273 0007475 183.3179 176.7767 15.20792937101458
SPACEMOBILE-002         
1 61048U 24163D   26192.03876027  .00008243  00000+0  38281-3 0  9999
2 61048  52.9623 199.4399 0006620 180.9990 179.0992 15.20841812101395
SPACEMOBILE-004         
1 61049U 24163E   26193.00710093  .00011603  00000+0  53337-3 0  9991
2 61049  52.9667 194.7854 0006095 215.6608 144.3979 15.20795354101542
SPACEMOBILE-001 DEB     
1 62369U 24163F   26193.31498355  .00006343  00000+0  19283-3 0  9992
2 62369  52.9921 161.0599 0005862 241.6175 118.4235 15.35353500 90366
SPACEMOBILE-002 DEB     
1 62370U 24163G   26193.30774996  .00011814  00000+0  26604-3 0  9995
2 62370  52.9412 145.4068 0004521 276.8449  83.2041 15.43744781102244
SPACEMOBILE-003 DEB     
1 62371U 24163H   26193.27257618  .00011583  00000+0  28126-3 0  9993
2 62371  52.9681 152.4208 0005492 225.9098 134.1454 15.41491863 95759
SPACEMOBILE-005 DEB     
1 62373U 24163K   26193.33586444  .00006529  00000+0  20278-3 0  9998
2 62373  52.9725 165.8525 0005814 218.9929 141.0653 15.34620955101982
SPACEMOBILE-006         
1 67232U 25309A   26193.11775960  .00000291  00000+0  29209-4 0  9993
2 67232  52.9937 217.4329 0010353 205.0874 154.9618 15.18648870 30389
SPACEMOBILE-010         
1 69591U 26139C   26193.25048891 -.00000055  00000+0  13955-4 0  9996
2 69591  52.9941 148.8229 0005089  36.8911 323.2429 15.12524273  3781
